{
  "type": "FeatureCollection",
  "features": [
    {
      "type": "Feature",
      "properties": {
        "norad_id": 44709,
        "name": "BEIDOU-3 IGSO-3 (C40)",
        "group": "gnss",
        "lat": 49.2183957494336,
        "lon": -23.274650235402383,
        "alt_km": 35893.17714676305,
        "timestamp": "2025-12-04T10:51:50.349449+00:00",
        "meta_object_name": "BEIDOU-3 IGSO-3 (C40)",
        "meta_object_id": "2019-073A",
        "meta_epoch": "2025-11-20T07:11:22.740000",
        "meta_mean_motion": 1.00250097,
        "meta_eccentricity": 0.0044538,
        "meta_inclination": 55.163,
        "meta_ra_of_asc_node": 283.159,
        "meta_arg_of_pericenter": 191.5856,
        "meta_mean_anomaly": 168.2409,
        "meta_ephemeris_type": 0,
        "meta_classification_type": "U",
        "meta_norad_cat_id": 44709,
        "meta_element_set_no": 999,
        "meta_rev_at_epoch": 2236,
        "meta_bstar": 0,
        "meta_mean_motion_dot": -2.06e-06,
        "meta_mean_motion_ddot": 0,
        "tle_line1": "1 44709U 19073A   25324.29956875 -.00000206  00000+0  00000+0 0  9998",
        "tle_line2": "2 44709  55.1630 283.1590 0044538 191.5856 168.2409  1.00250097 22360"
      },
      "geometry": {
        "type": "Point",
        "coordinates": [
          -23.274650235402383,
          49.2183957494336
        ]
      }
    },
    {
      "type": "Feature",
      "properties": {
        "norad_id": 44793,
        "name": "BEIDOU-3 M22 (C44)",
        "group": "gnss",
        "lat": -8.895675728775949,
        "lon": 133.15704122427127,
        "alt_km": 21544.719590145905,
        "timestamp": "2025-12-04T10:51:50.349463+00:00",
        "meta_object_name": "BEIDOU-3 M22 (C44)",
        "meta_object_id": "2019-078A",
        "meta_epoch": "2025-12-02T00:28:58.554624",
        "meta_mean_motion": 1.86231817,
        "meta_eccentricity": 0.00056333,
        "meta_inclination": 54.1183,
        "meta_ra_of_asc_node": 306.7625,
        "meta_arg_of_pericenter": 22.616,
        "meta_mean_anomaly": 337.398,
        "meta_ephemeris_type": 0,
        "meta_classification_type": "U",
        "meta_norad_cat_id": 44793,
        "meta_element_set_no": 999,
        "meta_rev_at_epoch": 4097,
        "meta_bstar": 0,
        "meta_mean_motion_dot": -6.1e-07,
        "meta_mean_motion_ddot": 0,
        "tle_line1": "1 44793U 19078A   25336.02012216 -.00000061  00000+0  00000+0 0  9991",
        "tle_line2": "2 44793  54.1183 306.7625 0005633  22.6160 337.3980  1.86231817 40974"
      },
      "geometry": {
        "type": "Point",
        "coordinates": [
          133.15704122427127,
          -8.895675728775949
        ]
      }
    },
    {
      "type": "Feature",
      "properties": {
        "norad_id": 44794,
        "name": "BEIDOU-3 M21 (C43)",
        "group": "gnss",
        "lat": 53.1596364793121,
        "lon": 51.43821834414777,
        "alt_km": 21521.914608395673,
        "timestamp": "2025-12-04T10:51:50.349480+00:00",
        "meta_object_name": "BEIDOU-3 M21 (C43)",
        "meta_object_id": "2019-078B",
        "meta_epoch": "2025-12-01T02:00:26.030304",
        "meta_mean_motion": 1.86227539,
        "meta_eccentricity": 0.00038706,
        "meta_inclination": 54.0922,
        "meta_ra_of_asc_node": 306.7607,
        "meta_arg_of_pericenter": 10.0971,
        "meta_mean_anomaly": 349.9036,
        "meta_ephemeris_type": 0,
        "meta_classification_type": "U",
        "meta_norad_cat_id": 44794,
        "meta_element_set_no": 999,
        "meta_rev_at_epoch": 4096,
        "meta_bstar": 0,
        "meta_mean_motion_dot": -5.7e-07,
        "meta_mean_motion_ddot": 0,
        "tle_line1": "1 44794U 19078B   25335.08363461 -.00000057  00000+0  00000+0 0  9993",
        "tle_line2": "2 44794  54.0922 306.7607 0003870  10.0971 349.9036  1.86227539 40963"
      },
      "geometry": {
        "type": "Point",
        "coordinates": [
          51.43821834414777,
          53.1596364793121
        ]
      }
    },
    {
      "type": "Feature",
      "properties": {
        "norad_id": 44850,
        "name": "COSMOS 2544 (759)",
        "group": "gnss",
        "lat": 45.971989402572426,
        "lon": -127.92458210938776,
        "alt_km": 19142.695143577905,
        "timestamp": "2025-12-04T10:51:50.349491+00:00",
        "meta_object_name": "COSMOS 2544 (759)",
        "meta_object_id": "2019-088A",
        "meta_epoch": "2025-12-03T19:35:48.045120",
        "meta_mean_motion": 2.13101769,
        "meta_eccentricity": 0.00137151,
        "meta_inclination": 65.4552,
        "meta_ra_of_asc_node": 80.257,
        "meta_arg_of_pericenter": 248.9953,
        "meta_mean_anomaly": 110.8552,
        "meta_ephemeris_type": 0,
        "meta_classification_type": "U",
        "meta_norad_cat_id": 44850,
        "meta_element_set_no": 999,
        "meta_rev_at_epoch": 4655,
        "meta_bstar": 0,
        "meta_mean_motion_dot": -2.3e-07,
        "meta_mean_motion_ddot": 0,
        "tle_line1": "1 44850U 19088A   25337.81652830 -.00000023  00000+0  00000+0 0  9994",
        "tle_line2": "2 44850  65.4552  80.2570 0013715 248.9953 110.8552  2.13101769 46551"
      },
      "geometry": {
        "type": "Point",
        "coordinates": [
          -127.92458210938776,
          45.971989402572426
        ]
      }
    },
    {
      "type": "Feature",
      "properties": {
        "norad_id": 44864,
        "name": "BEIDOU-3 M19 (C41)",
        "group": "gnss",
        "lat": -49.312609347469305,
        "lon": 18.663807130390158,
        "alt_km": 21485.342908711114,
        "timestamp": "2025-12-04T10:51:50.349502+00:00",
        "meta_object_name": "BEIDOU-3 M19 (C41)",
        "meta_object_id": "2019-090A",
        "meta_epoch": "2025-12-02T22:27:31.551840",
        "meta_mean_motion": 1.86231053,
        "meta_eccentricity": 0.00175607,
        "meta_inclination": 56.3847,
        "meta_ra_of_asc_node": 69.2872,
        "meta_arg_of_pericenter": 284.9296,
        "meta_mean_anomaly": 72.494,
        "meta_ephemeris_type": 0,
        "meta_classification_type": "U",
        "meta_norad_cat_id": 44864,
        "meta_element_set_no": 999,
        "meta_rev_at_epoch": 4057,
        "meta_bstar": 0,
        "meta_mean_motion_dot": -4.9e-07,
        "meta_mean_motion_ddot": 0,
        "tle_line1": "1 44864U 19090A   25336.93578185 -.00000049  00000+0  00000+0 0  9992",
        "tle_line2": "2 44864  56.3847  69.2872 0017560 284.9296  72.4940  1.86231053 40575"
      },
      "geometry": {
        "type": "Point",
        "coordinates": [
          18.663807130390158,
          -49.312609347469305
        ]
      }
    },
    {
      "type": "Feature",
      "properties": {
        "norad_id": 44865,
        "name": "BEIDOU-3 M20 (C42)",
        "group": "gnss",
        "lat": 19.96185343260069,
        "lon": 83.23260315626176,
        "alt_km": 21523.14240049655,
        "timestamp": "2025-12-04T10:51:50.349515+00:00",
        "meta_object_name": "BEIDOU-3 M20 (C42)",
        "meta_object_id": "2019-090B",
        "meta_epoch": "2025-12-02T19:15:49.919904",
        "meta_mean_motion": 1.86231044,
        "meta_eccentricity": 0.00146831,
        "meta_inclination": 56.3861,
        "meta_ra_of_asc_node": 69.3259,
        "meta_arg_of_pericenter": 297.6742,
        "meta_mean_anomaly": 60.1134,
        "meta_ephemeris_type": 0,
        "meta_classification_type": "U",
        "meta_norad_cat_id": 44865,
        "meta_element_set_no": 999,
        "meta_rev_at_epoch": 4055,
        "meta_bstar": 0,
        "meta_mean_motion_dot": -4.8e-07,
        "meta_mean_motion_ddot": 0,
        "tle_line1": "1 44865U 19090B   25336.80266111 -.00000048  00000+0  00000+0 0  9991",
        "tle_line2": "2 44865  56.3861  69.3259 0014683 297.6742  60.1134  1.86231044 40559"
      },
      "geometry": {
        "type": "Point",
        "coordinates": [
          83.23260315626176,
          19.96185343260069
        ]
      }
    },
    {
      "type": "Feature",
      "properties": {
        "norad_id": 45344,
        "name": "BEIDOU-3 G2 (C60)",
        "group": "gnss",
        "lat": -2.985508788828228,
        "lon": -43.46861643004394,
        "alt_km": 35767.523378457656,
        "timestamp": "2025-12-04T10:51:50.349527+00:00",
        "meta_object_name": "BEIDOU-3 G2 (C60)",
        "meta_object_id": "2020-017A",
        "meta_epoch": "2025-12-04T03:50:04.560000",
        "meta_mean_motion": 1.00270213,
        "meta_eccentricity": 0.0004673,
        "meta_inclination": 2.9843,
        "meta_ra_of_asc_node": 43.5798,
        "meta_arg_of_pericenter": 263.9443,
        "meta_mean_anomaly": 263.2835,
        "meta_ephemeris_type": 0,
        "meta_classification_type": "U",
        "meta_norad_cat_id": 45344,
        "meta_element_set_no": 999,
        "meta_rev_at_epoch": 2130,
        "meta_bstar": 0,
        "meta_mean_motion_dot": -1.27e-06,
        "meta_mean_motion_ddot": 0,
        "tle_line1": "1 45344U 20017A   25338.15977500 -.00000127  00000+0  00000+0 0  9994",
        "tle_line2": "2 45344   2.9843  43.5798 0004673 263.9443 263.2835  1.00270213 21306"
      },
      "geometry": {
        "type": "Point",
        "coordinates": [
          -43.46861643004394,
          -2.985508788828228
        ]
      }
    }
  ]
}